[{"OBJECT_NAME":"ONEWEB-0303","OBJECT_ID":"2021-083B","EPOCH":"2026-03-09T19:55:07.688640","MEAN_MOTION":13.18685946,"ECCENTRICITY":0.00017097,"INCLINATION":87.9252,"RA_OF_ASC_NODE":355.1915,"ARG_OF_PERICENTER":71.9228,"MEAN_ANOMALY":288.2091,"EPHEMERIS_TYPE":0,"CLASSIFICATION_TYPE":"U","NORAD_CAT_ID":49187,"ELEMENT_SET_NO":999,"REV_AT_EPOCH":21688,"BSTAR":-0.00010909583,"MEAN_MOTION_DOT":-3.0e-7,"MEAN_MOTION_DDOT":0},{"OBJECT_NAME":"SL-14 DEB","OBJECT_ID":"1991-056CY","EPOCH":"2026-03-08T18:48:48.336192","MEAN_MOTION":13.23680367,"ECCENTRICITY":0.00275951,"INCLINATION":82.5758,"RA_OF_ASC_NODE":199.9582,"ARG_OF_PERICENTER":276.4141,"MEAN_ANOMALY":83.3844,"EPHEMERIS_TYPE":0,"CLASSIFICATION_TYPE":"U","NORAD_CAT_ID":45654,"ELEMENT_SET_NO":999,"REV_AT_EPOCH":29129,"BSTAR":0.0015961845,"MEAN_MOTION_DOT":6.91e-6,"MEAN_MOTION_DDOT":0}]
